M2 PATHFINDER           
1 45727U 20037E   26193.31634718  .00000948  00000+0  71677-4 0  9993
2 45727  97.8147  24.8321 0013126  71.3642 288.9008 15.04786183329270
NETSAT-4                
1 46504U 20068U   26193.00689132  .00010683  00000+0  23103-3 0  9994
2 46504  97.8606 203.2566 0004400 205.4118 154.6913 15.44684583319606
NETSAT-3                
1 46505U 20068V   26192.57811234  .00011149  00000+0  25064-3 0  9992
2 46505  97.8654 200.9796 0003376 227.4367 132.6595 15.43525225319440
NETSAT-1                
1 46506U 20068W   26192.58232285  .00007156  00000+0  21210-3 0  9999
2 46506  97.8751 195.0226 0002439 285.6031  74.4941 15.35191564319044
NETSAT-2                
1 46507U 20068X   26193.26942957  .00014459  00000+0  28750-3 0  9990
2 46507  97.8611 203.5313 0001763 221.8414 138.2699 15.47074786319619
GREENCUBE (IO-117)      
1 53109U 22080E   26193.24176170 -.00000003  00000+0  00000+0 0  9991
2 53109  70.1417 289.5333 0009038 284.1760  75.7895  6.42583320 93670
SITRO-AIS 5 (KATYS)     
1 57176U 23091L   26193.25380327  .00007430  00000+0  25793-3 0  9994
2 57176  97.5054 257.3989 0010966  22.7479 337.4245 15.30022917168175
SITRO-AIS 6 (CHIRKIN)   
1 57192U 23091AC  26193.22579303  .00005737  00000+0  22295-3 0  9995
2 57192  97.5061 256.3552 0011490  26.7515 333.4314 15.26402947168100
SITRO-AIS 8 (ANOKHIN)   
1 57193U 23091AD  26193.22617228  .00007927  00000+0  25236-3 0  9996
2 57193  97.5051 259.0637 0009831  18.7522 341.4080 15.32805695168281
SITRO-AIS 7 (FARTUSHNIY)
1 57194U 23091AE  26193.29972354  .00005539  00000+0  21745-3 0  9996
2 57194  97.5057 256.2412 0011438  27.6755 332.5089 15.26079020168100
SITRO-AIS 10 (BURDAEV)  
1 57199U 23091AK  26193.21528616  .00012433  00000+0  31816-3 0  9992
2 57199  97.5076 264.3703 0005103 353.9473   6.1710 15.39552844168618
SITRO-AIS 9 (SHCHUKIN)  
1 57201U 23091AM  26193.31484734  .00011511  00000+0  29971-3 0  9994
2 57201  97.5074 264.1822 0005373 353.7673   6.3505 15.39040798168613
SITRO-AIS 12 (SMIRENNIY)
1 57204U 23091AQ  26193.30068491  .00011762  00000+0  30325-3 0  9997
2 57204  97.5088 264.6508 0004915 346.8364  13.2752 15.39336840168637
SITRO-AIS 11 (SHEFFER)  
1 57208U 23091AU  26193.30703463  .00011864  00000+0  30149-3 0  9993
2 57208  97.5086 264.9200 0004811 346.1415  13.9698 15.39778761168656
SITRO-AIS 25            
1 59066U 24039R   26193.29899377  .00001686  00000+0  13353-3 0  9997
2 59066  95.3894 252.3489 0142571 239.7618 118.9430 14.93631960128475
SITRO-AIS 26            
1 59067U 24039S   26193.30382436  .00001748  00000+0  13904-3 0  9994
2 59067  95.3895 252.2447 0142912 240.3671 118.3257 14.93424271128461
SITRO-AIS 27            
1 59068U 24039T   26193.33397880  .00001564  00000+0  12357-3 0  9994
2 59068  95.3899 252.5489 0141976 238.7996 119.9250 14.93849580128492
SITRO-AIS 28            
1 59071U 24039U   26193.24387852  .00001959  00000+0  15394-3 0  9998
2 59071  95.3898 252.5356 0141884 238.9487 119.7747 14.93882252128484
GRBBETA                 
1 60237U 24128C   26193.30596002  .00002005  00000+0  14653-3 0  9999
2 60237  61.9894 128.1258 0037405 140.0195 220.3664 15.06796644110051
OOV-CUBE (TUBSAT-30)    
1 60240U 24128F   26193.00684618  .00001128  00000+0  97999-4 0  9991
2 60240  61.9937 139.0215 0041539 139.3002 221.1206 15.02865918109841
ROBUSTA-3A (MEDITERRAN*)
1 60243U 24128J   26193.20243966  .00004555  00000+0  27269-3 0  9992
2 60243  61.9861 119.7630 0038345 133.3943 227.0356 15.11959618110209
LASARSAT                
1 62391U 24247Q   26193.22203257  .00022836  00000+0  43384-3 0  9999
2 62391  44.9750 121.3703 0006860 145.2872 214.8468 15.47906721 87198
CROCUBE                 
1 62394U 24247T   26192.99415519  .00027505  00000+0  48357-3 0  9994
2 62394  44.9710 119.5598 0007111 151.4755 208.6527 15.50022679 87199
FORESAIL-1 PRIME        
1 66778U 25276DS  26193.16385043  .00002869  00000+0  14066-3 0  9991
2 66778  97.4195 265.9794 0003123  51.5125 308.6390 15.18922403 34192
KNACKSAT-2              
1 67683U 98067XZ  26193.31629946  .00033186  00000+0  37383-3 0  9998
2 67683  51.6259 167.8638 0008140 318.4954  41.5420 15.62193743 24201
