OBJECT_NAME,OBJECT_ID,EPOCH,MEAN_MOTION,ECCENTRICITY,INCLINATION,RA_OF_ASC_NODE,ARG_OF_PERICENTER,MEAN_ANOMALY,EPHEMERIS_TYPE,CLASSIFICATION_TYPE,NORAD_CAT_ID,ELEMENT_SET_NO,REV_AT_EPOCH,BSTAR,MEAN_MOTION_DOT,MEAN_MOTION_DDOT
M2 PATHFINDER,2020-037E,2026-07-12T07:35:32.396352,15.04786183,.00131265,97.8147,24.8321,71.3642,288.9008,0,U,45727,999,32927,.71677192E-4,.948E-5,0
NETSAT-4,2020-068U,2026-07-12T00:09:55.410048,15.44684583,.00044009,97.8606,203.2566,205.4118,154.6913,0,U,46504,999,31960,.23103073E-3,.10683E-3,0
NETSAT-3,2020-068V,2026-07-11T13:52:28.906176,15.43525225,.00033769,97.8654,200.9796,227.4367,132.6595,0,U,46505,999,31944,.25063843E-3,.11149E-3,0
NETSAT-1,2020-068W,2026-07-11T13:58:32.694240,15.35191564,.00024394,97.8751,195.0226,285.6031,74.4941,0,U,46506,999,31904,.21210218E-3,.7156E-4,0
NETSAT-2,2020-068X,2026-07-12T06:27:58.714848,15.47074786,.00017635,97.8611,203.5313,221.8414,138.2699,0,U,46507,999,31961,.28749629E-3,.14459E-3,0
GREENCUBE (IO-117),2022-080E,2026-07-12T05:48:08.210880,6.42583320,.0009038,70.1417,289.5333,284.1760,75.7895,0,U,53109,999,9367,0,-.3E-7,0
SITRO-AIS 5 (KATYS),2023-091L,2026-07-12T06:05:28.602528,15.30022917,.00109665,97.5054,257.3989,22.7479,337.4245,0,U,57176,999,16817,.25793361E-3,.743E-4,0
SITRO-AIS 6 (CHIRKIN),2023-091AC,2026-07-12T05:25:08.517792,15.26402947,.00114901,97.5061,256.3552,26.7515,333.4314,0,U,57192,999,16810,.22294858E-3,.5737E-4,0
SITRO-AIS 8 (ANOKHIN),2023-091AD,2026-07-12T05:25:41.284992,15.32805695,.00098318,97.5051,259.0637,18.7522,341.4080,0,U,57193,999,16828,.25236355E-3,.7927E-4,0
SITRO-AIS 7 (FARTUSHNIY),2023-091AE,2026-07-12T07:11:36.113856,15.26079020,.00114383,97.5057,256.2412,27.6755,332.5089,0,U,57194,999,16810,.21745162E-3,.5539E-4,0
SITRO-AIS 10 (BURDAEV),2023-091AK,2026-07-12T05:10:00.724224,15.39552844,.0005103,97.5076,264.3703,353.9473,6.1710,0,U,57199,999,16861,.31815646E-3,.12433E-3,0
SITRO-AIS 9 (SHCHUKIN),2023-091AM,2026-07-12T07:33:22.810176,15.39040798,.00053739,97.5074,264.1822,353.7673,6.3505,0,U,57201,999,16861,.29970657E-3,.11511E-3,0
SITRO-AIS 12 (SMIRENNIY),2023-091AQ,2026-07-12T07:12:59.176224,15.39336840,.00049158,97.5088,264.6508,346.8364,13.2752,0,U,57204,999,16863,.30324795E-3,.11762E-3,0
SITRO-AIS 11 (SHEFFER),2023-091AU,2026-07-12T07:22:07.792032,15.39778761,.00048112,97.5086,264.9200,346.1415,13.9698,0,U,57208,999,16865,.30149235E-3,.11864E-3,0
SITRO-AIS 25,2024-039R,2026-07-12T07:10:33.061728,14.93631960,.01425717,95.3894,252.3489,239.7618,118.9430,0,U,59066,999,12847,.13353183E-3,.1686E-4,0
SITRO-AIS 26,2024-039S,2026-07-12T07:17:30.424704,14.93424271,.01429123,95.3895,252.2447,240.3671,118.3257,0,U,59067,999,12846,.13903525E-3,.1748E-4,0
SITRO-AIS 27,2024-039T,2026-07-12T08:00:55.768320,14.93849580,.01419768,95.3899,252.5489,238.7996,119.9250,0,U,59068,999,12849,.12357104E-3,.1564E-4,0
SITRO-AIS 28,2024-039U,2026-07-12T05:51:11.104128,14.93882252,.01418842,95.3898,252.5356,238.9487,119.7747,0,U,59071,999,12848,.15393989E-3,.1959E-4,0
GRBBETA,2024-128C,2026-07-12T07:20:34.945728,15.06796644,.0037405,61.9894,128.1258,140.0195,220.3664,0,U,60237,999,11005,.14653408E-3,.2005E-4,0
OOV-CUBE (TUBSAT-30),2024-128F,2026-07-12T00:09:51.509952,15.02865918,.00415391,61.9937,139.0215,139.3002,221.1206,0,U,60240,999,10984,.97999429E-4,.1128E-4,0
ROBUSTA-3A (MEDITERRANEE),2024-128J,2026-07-12T04:51:30.786624,15.11959618,.00383455,61.9861,119.7630,133.3943,227.0356,0,U,60243,999,11020,.27268783E-3,.4555E-4,0
LASARSAT,2024-247Q,2026-07-12T05:19:43.614048,15.47906721,.00068606,44.9750,121.3703,145.2872,214.8468,0,U,62391,999,8719,.43383974E-3,.22836E-3,0
CROCUBE,2024-247T,2026-07-11T23:51:35.008416,15.50022679,.00071113,44.9710,119.5598,151.4755,208.6527,0,U,62394,999,8719,.48357142E-3,.27505E-3,0
FORESAIL-1 PRIME,2025-276DS,2026-07-12T03:55:56.677152,15.18922403,.00031233,97.4195,265.9794,51.5125,308.6390,0,U,66778,999,3419,.14066162E-3,.2869E-4,0
KNACKSAT-2,1998-067XZ,2026-07-12T07:35:28.273344,15.62193743,.00081409,51.6259,167.8638,318.4954,41.5420,0,U,67683,999,2420,.37383079E-3,.33186E-3,0
